"spkid","full_name","pdes","name","prefix","neo","pha","H","G","M1","M2","K1","K2","PC","diameter","extent","albedo","rot_per","GM","epoch","epoch_mjd","epoch_cal","equinox","e","a","q","i","om","w","ma","ad","n","tp","tp_cal","per","per_y","moid","moid_ld","moid_jup","class","producer","data_arc","first_obs","last_obs","condition_code","rms","two_body","A1","A2","A3","DT"
2007753,"  7753 (1988 XB)",7753,,,Y,Y,18.02,,,,,,,,,,42.2,,2460000.5,60000,2023-02-25.0,J2000,0.4816,1.467,0.760,3.12,73.39,280.07,123.10,2.17,0.5547,2459778.57,2022-07-18.0,649,1.78,0.00647,2.52,3.27,APO,"Otto Matic",12487,1988-12-05,2023-02-12,0,.39597,,,-1.1e-14,,
2007822,"  7822 (1991 CS)",7822,,,Y,Y,17.30,,,,,,,1.602,,0.075,2.3896,,2460000.5,60000,2023-02-25.0,J2000,0.1646,1.123,0.938,37.12,156.85,249.44,45.25,1.31,0.8285,2459945.89,2023-01-01.3,435,1.19,0.0214,8.33,3.96,APO,"Otto Matic",11493,1991-01-19,2022-07-08,0,.40977,,,,,
2007839,"  7839 (1994 ND)",7839,,,Y,N,17.80,,,,,,,0.784,,0.181,,,2460000.5,60000,2023-02-25.0,J2000,0.5186,2.165,1.042,27.11,102.51,228.35,342.28,3.29,0.3094,2460057.79,2023-04-23.2,1.16e+03,3.19,0.136,52.8,2.36,AMO,"Otto Matic",9038,1994-07-03,2019-04-01,0,.54406,,,,,
2007888,"  7888 (1993 UC)",7888,,,Y,N,15.19,,,,,,,2.298,,0.257,2.337,,2460000.5,60000,2023-02-25.0,J2000,0.6633,2.437,0.820,26.09,165.90,323.04,228.68,4.05,0.2591,2460507.27,2024-07-15.7,1.39e+03,3.8,0.0867,33.7,1.46,APO,"Otto Matic",12018,1989-10-28,2022-09-23,0,.36234,,,,,
2007889,"  7889 (1994 LX)",7889,,,Y,N,15.14,,,,,,,1.680,,0.452,2.741,,2460000.5,60000,2023-02-25.0,J2000,0.3462,1.262,0.825,36.91,111.27,349.17,279.77,1.70,0.6955,2460115.85,2023-06-20.3,518,1.42,0.155,60.3,3.47,APO,"Otto Matic",16475,1977-08-10,2022-09-18,0,.36607,,,,,
2007977,"  7977 (1977 QQ5)",7977,,,Y,N,15.17,,,,,,,,,,7.456,,2460000.5,60000,2023-02-25.0,J2000,0.4663,2.226,1.188,25.16,134.14,248.09,235.25,3.26,0.2967,2460420.93,2024-04-20.4,1.21e+03,3.32,0.355,138,2.65,AMO,"Otto Matic",24547,1955-03-23,2022-06-06,0,.46915,,,,,
2008013,"  8013 Gordonmoore (1990 KA)",8013,Gordonmoore,,Y,N,17.10,,,,,,,2.3,,,8.4,,2460000.5,60000,2023-02-25.0,J2000,0.4313,2.2,1.251,7.57,105.56,146.74,10.21,3.15,0.3021,2459966.69,2023-01-22.1,1.19e+03,3.26,0.247,96.3,1.92,AMO,"Otto Matic",25658,1951-09-01,2021-11-30,0,.5665,,,,,
2008014,"  8014 (1990 MF)",8014,,,Y,Y,18.88,,,,,,,0.7,,,50.09,,2460000.5,60000,2023-02-25.0,J2000,0.4562,1.747,0.950,1.87,209.84,114.76,35.33,2.54,0.4268,2459917.73,2022-12-04.2,843,2.31,0.0167,6.49,2.81,APO,"Otto Matic",11615,1990-06-14,2022-04-02,0,.28875,,,-2.3e-14,,
2008034,"  8034 Akka (1992 LR)",8034,Akka,,Y,N,18.02,,,,,,,,,,7.283,,2460000.5,60000,2023-02-25.0,J2000,0.4092,1.83,1.081,2.02,232.83,68.21,126.12,2.58,0.3982,2459683.80,2022-04-14.2,904,2.48,0.0729,28.4,2.67,AMO,"Otto Matic",11174,1992-05-21,2022-12-24,0,.55985,,,,,
2008035,"  8035 (1992 TB)",8035,,,Y,N,17.11,,,,,,,,,,,,2460000.5,60000,2023-02-25.0,J2000,0.4626,1.342,0.721,28.31,185.62,6.10,353.36,1.96,0.634,2460010.98,2023-03-07.4,568,1.55,0.273,106,2.99,APO,"Otto Matic",11071,1992-10-02,2023-01-24,0,.52194,,,,,
2008037,"  8037 (1993 HO1)",8037,,,Y,N,16.63,,,,,,,,,,12.98,,2460000.5,60000,2023-02-25.0,J2000,0.4175,1.987,1.158,5.91,22.39,105.71,280.27,2.82,0.3519,2460227.11,2023-10-09.6,1.02e+03,2.8,0.202,78.4,2.28,AMO,"Otto Matic",15911,1979-03-08,2022-09-29,0,.47572,,,,,
2008176,"  8176 (1991 WA)",8176,,,Y,N,17.04,,,,,,,,,,7.111,,2460000.5,60000,2023-02-25.0,J2000,0.6431,1.575,0.562,39.59,66.50,241.90,321.57,2.59,0.4987,2460077.57,2023-05-13.0,722,1.98,0.192,74.9,3.22,APO,"Otto Matic",11048,1991-12-01,2022-03-01,0,.58129,,,,,
2008201,"  8201 (1994 AH2)",8201,,,Y,N,15.95,,,,,,,1.859,,0.154,23.949,,2460000.5,60000,2023-02-25.0,J2000,0.7067,2.538,0.744,9.55,164.10,25.11,53.24,4.33,0.2437,2459782.05,2022-07-21.5,1.48e+03,4.04,0.101,39.5,0.656,APO,"Otto Matic",14650,1981-12-16,2022-01-25,0,.5456,,,,,
2008507,"  8507 (1991 CB1)",8507,,,Y,N,17.21,,,,,,,,,,,,2460000.5,60000,2023-02-25.0,J2000,0.5945,1.687,0.684,14.59,317.41,345.79,99.51,2.69,0.4498,2459779.29,2022-07-18.7,800,2.19,0.22,85.8,2.59,APO,"Otto Matic",11686,1991-02-15,2023-02-13,0,.56097,,,,,
2008566,"  8566 (1996 EN)",8566,,,Y,Y,16.32,,,,,,,1.568,,0.217,4.849,,2460000.5,60000,2023-02-25.0,J2000,0.4303,1.506,0.858,37.98,164.12,125.14,130.22,2.15,0.5332,2459756.26,2022-06-25.7,675,1.85,0.0227,8.85,3.48,APO,"Otto Matic",14503,1983-04-06,2022-12-20,0,.45367,,,,,
2008567,"  8567 (1996 HW1)",8567,,,Y,N,15.35,,,,,,,2.928,,0.156,8.7573,,2460000.5,60000,2023-02-25.0,J2000,0.4495,2.045,1.126,8.45,177.10,177.31,337.32,2.96,0.337,2460067.80,2023-05-03.3,1.07e+03,2.92,0.12,46.7,2.48,AMO,"Otto Matic",24476,1955-05-23,2022-05-27,0,.38266,,,,,
2008709,"  8709 Kadlu (1994 JF1)",8709,Kadlu,,Y,N,17.08,,,,,,,,,,50.6,,2460000.5,60000,2023-02-25.0,J2000,0.4890,2.529,1.293,3.52,119.24,153.64,35.44,3.77,0.245,2459855.86,2022-10-03.3,1.47e+03,4.02,0.277,108,1.37,AMO,"Otto Matic",11568,1990-09-23,2022-05-26,0,.57462,,,,,
2009058,"  9058 (1992 JB)",9058,,,Y,N,17.91,,,,,,,,,,,,2460000.5,60000,2023-02-25.0,J2000,0.3597,1.557,0.997,16.09,218.30,307.10,340.34,2.12,0.5075,2460039.23,2023-04-04.7,709,1.94,0.0847,33,2.94,APO,"Otto Matic",11343,1992-01-09,2023-01-29,0,.50009,,,,,
2009162,"  9162 Kwiila (1987 OA)",9162,Kwiila,,Y,N,18.03,,,,,,,1.127,,0.088,15.13,,2460000.5,60000,2023-02-25.0,J2000,0.5955,1.497,0.605,9.01,180.01,235.80,114.33,2.39,0.5383,2459788.10,2022-07-27.5,669,1.83,0.0809,31.5,3.03,APO,"Otto Matic",12354,1987-07-18,2021-05-14,0,.48097,,,,,
2009172,"  9172 Abhramu (1989 OB)",9172,Abhramu,,Y,N,16.65,,,,,,,,,,,,2460000.5,60000,2023-02-25.0,J2000,0.5529,2.71,1.211,7.84,287.62,74.10,185.88,4.21,0.221,2460788.46,2025-04-22.9,1.63e+03,4.46,0.251,97.6,1.45,AMO,"Otto Matic",11929,1989-07-07,2022-03-05,0,.62984,,,,,
2009202,"  9202 (1993 PB)",9202,,,Y,N,16.04,,,,,,,1.617,,0.332,,,2460000.5,60000,2023-02-25.0,J2000,0.6077,1.424,0.559,40.80,315.90,212.36,236.96,2.29,0.5801,2460212.61,2023-09-25.1,621,1.7,0.374,145,2.91,APO,"Otto Matic",10702,1993-08-13,2022-12-01,0,.46471,,,,,
2009400,"  9400 (1994 TW1)",9400,,,Y,N,14.86,,,,,,,3.698,,0.155,97.1,,2460000.5,60000,2023-02-25.0,J2000,0.5808,2.587,1.085,36.00,3.36,62.14,269.10,4.09,0.2368,2460384.30,2024-03-14.7,1.52e+03,4.16,0.283,110,2.48,AMO,"Otto Matic",10679,1991-03-18,2020-06-12,0,.42553,,,,,
2009856,"  9856 (1991 EE)",9856,,,Y,Y,17.05,,,,,,,1.0,,0.3,3.045,,2460000.5,60000,2023-02-25.0,J2000,0.6259,2.242,0.839,9.83,168.10,116.21,138.39,3.65,0.2936,2459529.18,2021-11-10.6,1.23e+03,3.36,0.0217,8.46,1.69,APO,"Otto Matic",11638,1991-03-13,2023-01-22,0,.44858,,,,,
2009950,"  9950 ESA (1990 VB)",9950,ESA,,Y,N,16.21,,,,,,,,,,6.712,,2460000.5,60000,2023-02-25.0,J2000,0.5329,2.439,1.139,14.59,253.47,103.57,175.83,3.74,0.2588,2459321.12,2021-04-16.6,1.39e+03,3.81,0.28,109,2.1,AMO,"Otto Matic",11469,1990-11-08,2022-04-03,0,.44651,,,,,
2010115," 10115 (1992 SK)",10115,,,Y,Y,17.16,,,,,,,0.938,,0.318,7.319,,2460000.5,60000,2023-02-25.0,J2000,0.3248,1.248,0.843,15.32,8.90,233.64,20.66,1.65,0.7066,2459971.26,2023-01-26.7,509,1.39,0.0457,17.8,3.4,APO,"Otto Matic",24655,1953-10-12,2021-04-13,0,.44955,,,,,
2010145," 10145 (1994 CK1)",10145,,,Y,N,16.98,,,,,,,,,,49.2892,,2460000.5,60000,2023-02-25.0,J2000,0.6329,1.901,0.698,4.55,328.40,27.41,122.82,3.10,0.3761,2459673.91,2022-04-04.4,957,2.62,0.0628,24.4,2.36,APO,"Otto Matic",10594,1994-02-10,2023-02-12,0,.55365,,,,,
2010150," 10150 (1994 PN)",10150,,,Y,N,15.48,,,,,,,,,,2.965,,2460000.5,60000,2023-02-25.0,J2000,0.5440,2.375,1.083,45.94,112.98,234.03,266.15,3.67,0.2692,2460349.11,2024-02-08.6,1.34e+03,3.66,0.226,87.8,2.44,AMO,"Otto Matic",10135,1994-08-07,2022-05-07,0,.47977,,,,,
2010165," 10165 (1995 BL2)",10165,,,Y,N,17.43,,,,,,,0.829,,0.372,,,2460000.5,60000,2023-02-25.0,J2000,0.5037,1.235,0.613,23.90,312.43,348.46,20.63,1.86,0.7184,2459971.78,2023-01-27.2,501,1.37,0.377,147,3.41,APO,"Otto Matic",11356,1991-02-22,2022-03-27,0,.55912,,,,,
2010302," 10302 (1989 ML)",10302,,,Y,N,19.45,,,,,,,,,,19.164,,2460000.5,60000,2023-02-25.0,J2000,0.1369,1.273,1.099,4.38,104.28,183.62,155.13,1.45,0.6864,2459774.49,2022-07-13.9,524,1.44,0.0815,31.7,3.64,AMO,"Otto Matic",12250,1989-06-06,2022-12-20,0,.44904,,,4.3e-14,,
2010563," 10563 Izhdubar (1993 WD)",10563,Izhdubar,,Y,N,16.94,,,,,,,,,,,,2460000.5,60000,2023-02-25.0,J2000,0.2663,1.007,0.739,63.46,56.56,132.19,241.47,1.27,0.9756,2460122.00,2023-06-26.5,369,1.01,0.144,56.1,3.82,APO,"Otto Matic",11187,1991-11-13,2022-06-30,0,.61592,,,,,
2010636," 10636 (1998 QK56)",10636,,,Y,N,17.70,,,,,,,0.533,,0.645,9.876,,2460000.5,60000,2023-02-25.0,J2000,0.5126,1.885,0.919,13.58,172.94,286.31,130.60,2.85,0.381,2459657.72,2022-03-19.2,945,2.59,0.111,43.2,2.5,APO,"Otto Matic",24455,1955-05-16,2022-04-29,0,.42424,,,,,
2010860," 10860 (1995 LE)",10860,,,Y,N,17.32,,,,,,,,,,,,2460000.5,60000,2023-02-25.0,J2000,0.5744,2.579,1.098,4.15,257.22,75.49,233.59,4.06,0.238,2460531.57,2024-08-09.0,1.51e+03,4.14,0.112,43.7,1.39,AMO,"Otto Matic",9361,1995-06-03,2021-01-18,0,.63239,,,,,
2011054," 11054 (1991 FA)",11054,,,Y,N,17.08,,,,,,,,,,2.57223,,2460000.5,60000,2023-02-25.0,J2000,0.4466,1.979,1.095,3.08,339.06,92.33,221.63,2.86,0.354,2460391.32,2024-03-21.8,1.02e+03,2.78,0.122,47.5,2.47,AMO,"Otto Matic",30869,1937-11-28,2022-06-04,0,.45654,,,,,
2011066," 11066 Sigurd (1992 CC1)",11066,Sigurd,,Y,N,15.24,,,,,,,2.104,,0.190,8.4958,,2460000.5,60000,2023-02-25.0,J2000,0.3755,1.392,0.869,36.88,349.23,22.01,74.94,1.91,0.6004,2459875.69,2022-10-23.1,600,1.64,0.12,46.5,3.58,APO,"Otto Matic",17104,1976-04-01,2023-01-29,0,.37258,,,,,
2011284," 11284 Belenus (1990 BA)",11284,Belenus,,Y,N,18.26,,,,,,,,,,5.43,,2460000.5,60000,2023-02-25.0,J2000,0.3374,1.74,1.153,1.99,311.73,171.15,146.71,2.33,0.4295,2459658.90,2022-03-20.3,838,2.3,0.168,65.5,2.76,AMO,"Otto Matic",26037,1950-12-09,2022-03-23,0,.48686,,,,,
